#dP2018 12 14  0  0  0.00000000      96 __u+U ITR00 FIT  IAC
## 2031 432000.00000000   900.00000000 58466 0.0000000000000
+   98   C01C02C03C04C05C06C07C08C09C10C11C12C13C14C32E01E02
+        E03E04E05E07E08E09E11E12E13E14E15E18E19E21E24E25E26
+        E27E30E31E33E36G01G02G03G04G05G06G07G08G09G10G11G12
+        G13G14G15G16G17G18G19G20G21G22G23G24G25G26G27G28G29
+        G30G31G32J01J02J03J07R01R02R03R04R05R07R08R09R10R11
+        R13R14R15R16R17R18R19R20R21R22R23R24R26  0  0  0  0
++        12 12 12 12 12  9  8  9  8  8  7  8  9  8 13  5  5
++         5  5  5  5  5  5  5  4  6  5  6  5  5  5  5  4  5
++         5  5  5  7  6  3  3  3  4  3  3  3  3  3  3  3  3
++         3  3  3  3  3  3  3  3  3  3  3  3  0  3  3  4  3
++         3  3  3 10 10 10 15  5  5  6  6  6  6  5  5  5  5
++         5  5  5  5  5  5  6  5  5  5  5  5  8  0  0  0  0
%c M  cc GPS ccc cccc cccc cccc cccc ccccc ccccc ccccc ccccc
%c cc cc ccc ccc cccc cccc cccc cccc ccccc ccccc ccccc ccccc
%f  0.0000000  0.000000000  0.00000000000  0.000000000000000
%f  0.0000000  0.000000000  0.00000000000  0.000000000000000
%i    0    0    0    0      0      0      0      0         0
%i    0    0    0    0      0      0      0      0         0
/* INFORMATION & ANALYSIS CENTER (IAC) OF MCC   (RAPID DATA)
/* S/V CLOCKS ARE ALIGNED TO GPS & GLONASS TIME RESPECTIVELY
/* USING THE BROADCAST EPHEMERIS                            
/* PCV:IGS14_2029 OL/AL:FES2004  NONE     YN ORB:CoN CLK:CoN
*  2018 12 14 17 15  0.00000000
PC01 -32290.238474  27084.037209   1052.287413    -39.346732
PC02   4364.416999  41965.155455   -298.855664   -170.754590
PC03 -14796.595138  39458.793449    542.845851   -196.232937
PC04 -39598.094981  14465.488297    621.073996   -254.352807
PC05  21843.277201  36052.222836   -565.016803     41.565913
PC06 -13331.529191  20794.276810 -33910.059525    153.347581
PC07 -24443.891877  31419.830748  13312.609936   -183.480373
PC08  -8678.507132  36766.198368  19102.337394     61.905056
PC09   3993.945150  27681.650438 -31268.791283    365.790068
PC10  -9413.035404  32097.960008  25584.207927   -321.110597
PC11 -20441.903499  -9810.325883  16278.358281    -87.592151
PC12 -10391.003229 -24140.771849  -9172.576030    275.336738
PC13   -551.359395  41746.568982   6864.065389   -428.801295
PC14 -22209.052695  -7876.915963  15039.432250    459.947620
PC32   5280.241451  15349.773770 -22693.653341 999999.999999
PE01 -23520.871650  16082.693509  -8015.843604   -498.961139
PE02  23513.630088 -16098.602650   7992.429134     39.121682
PE03  24358.062281  -5201.810417  15997.655100   -110.728207
PE04  -6303.227118  16040.182185 -24068.498221   -178.927876
PE05  28240.494121   8745.123620  -1490.721303    142.612896
PE07 -15593.500060 -17527.490180  18044.877095    -93.598542
PE08   6062.733956 -15972.349029  24168.904735   6443.535692
PE09  15787.867501  17289.217610 -18120.333587   6588.604791
PE11  10893.243430  27079.160440  -4891.771897   5715.990644
PE12  -2498.162091  25967.504138  13985.119270   5716.026235
PE13 -10950.910885 -27082.123432   4774.933945    184.928639
PE14  24391.974503    452.477209 -18808.467771   6474.967843
PE15   2017.995380 -26171.076121 -13665.033566    732.028534
PE18 -22336.195364 -11331.673975   7604.774879   5682.728279
PE19 -25479.175001   3808.429982 -14584.807883     -9.901946
PE21 -19278.594752  -1477.929290 -22409.480873   -509.359433
PE24   4151.879227  17627.041257  23414.012171   6338.806745
PE25  19261.213948   1518.963396  22435.229697   1954.254332
PE26 -17577.940663 -12401.837669  20333.828646   5136.077223
PE27  -3681.354275 -17934.953675 -23249.059809    570.451336
PE30  13756.718024 -23814.633568 -10932.668915   5270.321413
PE31 -14041.115727  23862.612847  10478.088675    958.685951
PE33 -13862.501279   9953.649026  24195.228843    650.051708
PE36  17560.079446  12154.943169 -20487.911679    578.825824
PG01 -13237.688964  15711.412252  16491.875477   -128.891472
PG02  14098.912519   8061.931201 -20466.809124    -85.641389
PG03 -22232.491330  13502.593354  -5225.240152    169.511338
PG04 -23168.431157 -13587.345219    373.804861    -97.919921
PG05  23203.149180   -205.865859 -13222.845525      0.377115
PG06   7626.496832  20769.782247 -14644.264297    316.386162
PG07  -6128.510752  25259.121239  -3840.756396     70.600485
PG08 -21303.716479  -2008.637854  15896.214340   -125.570987
PG09  -3433.051969  15968.585333 -20990.925451    483.185004
PG10  -3901.411193 -14819.514314  21725.010775    151.576045
PG11 -12849.104761  10943.699393  20006.051784   -688.640425
PG12  24262.097511 -10319.783360  -2449.719952    284.524091
PG13  21804.121661  10422.530019  10935.202908    -81.588554
PG14 -18073.888490 -19292.685482   3721.800062    -94.634798
PG15  20268.253170  -2424.998712  16941.146455   -336.268571
PG16 -22934.818752  -1998.613255 -13780.406079     -6.628608
PG17  11517.825612  20586.074241  12722.935910    -18.656063
PG18 -15109.014273   5560.880534  20622.329299      5.430367
PG19  18123.603410  19083.779821   2793.917060   -373.909125
PG20   5858.355483 -18674.886765  17778.219846    519.942029
PG21   1879.347390 -26510.766765   -270.160116   -287.393876
PG22 -24440.777801   9966.313412   2983.459738   -598.562822
PG23 -13494.816953   8904.139945 -20826.950988   -203.543090
PG24  14675.050158 -10943.335130  18995.228586    -59.499477
PG25      0.000000      0.000000      0.000000 999999.999999
PG26 -15981.977270  -8058.829626 -19681.316134     67.619987
PG27 -23168.677586 -10883.735181   7520.814944    -32.315846
PG28    620.247785  15389.113866  22273.420292    758.484791
PG29   6628.752056 -13464.753817 -21932.306136    315.495304
PG30    976.381283  25495.886176   7070.267243    -19.753041
PG31  -9062.606788 -18320.719564 -16702.109580     72.857621
PG32 -14268.304706 -19800.088826  10640.640293   -318.724837
PJ01 -33393.517215  19846.074616 -11692.256865   -242.218214
PJ02 -25138.792483  32374.615617  -5341.738255     -0.842970
PJ03 -25315.811170  23584.130733  29284.235787      2.010211
PJ07 -25398.716760  33662.077342    -21.683977    360.145827
PR01  18540.266285   8406.477845 -15386.170817     36.433759
PR02  25175.941557   -151.518716   3956.885430    344.387374
PR03  15288.351705  -7990.183198  18802.767919    151.630813
PR04  -4027.501825 -11082.439526  22628.425230    287.423449
PR05 -20112.136478  -7731.231242  13671.526173     17.667673
PR07 -14966.769425   8087.798406 -18995.788953    -53.713265
PR08   3184.300319  11076.789141 -22711.856009     20.001667
PR09 -16489.969151   9860.809329 -16727.487042     43.729013
PR10 -15221.748153  20294.467309  -2256.336920     37.628513
PR11  -4786.288331  19993.205602  15090.555185    -50.162286
PR13  16004.676286  -9383.426773  17493.003034    -17.905042
PR14  15123.180304 -20425.724898   2253.228319     33.964054
PR15   5545.074525 -20288.577453 -14403.472415     98.866751
PR16  -7505.817472  -8519.418126 -22850.522711    108.746627
PR17   4804.550084 -12778.392612 -21524.391805    187.881234
PR18  -6058.860842 -22765.226719  -9832.034692     28.130586
PR19 -13104.124635 -20616.564250   7335.934141    -62.127365
PR20 -12936.433542  -5150.264662  21394.185318   -362.329722
PR21  -4395.544128  13245.367943  21364.548086    -19.872163
PR22   7291.238036  23159.522596   7629.191876    -64.477778
PR23  14319.783860  17606.245394 -11652.934200    196.798761
PR24  12631.848004   3422.239160 -21912.637525   -174.917101
PR26 -13536.474246  -6638.936173  20581.215487      9.917187
EOF
